#aV2012  4 14  0  0  0.00000000     288 DD+AD WGS84 FIT  NGA
## 1683 518400.00000000   300.00000000 56031 0.0000000000000
+   31     1  2  3  4  5  6  7  8  9 10 11 12 13 14 15 16 17
+         18 19 20 21 22 23 25 26 27 28 29 30 31 32  0  0  0
+          0  0  0  0  0  0  0  0  0  0  0  0  0  0  0  0  0
+          0  0  0  0  0  0  0  0  0  0  0  0  0  0  0  0  0
+          0  0  0  0  0  0  0  0  0  0  0  0  0  0  0  0  0
++         2  2  2  2  2  2  2  2  2  2  2  2  2  2  2  2  2
++         2  2  2  2  2  2  2  2  2  2  2  2  2  2  2  0  0
++         0  0  0  0  0  0  0  0  0  0  0  0  0  0  0  0  0
++         0  0  0  0  0  0  0  0  0  0  0  0  0  0  0  0  0
++         0  0  0  0  0  0  0  0  0  0  0  0  0  0  0  0  0
%c cc cc ccc ccc cccc cccc cccc cccc ccccc ccccc ccccc ccccc
%c cc cc ccc ccc cccc cccc cccc cccc ccccc ccccc ccccc ccccc
%f  0.0000000  0.000000000  0.00000000000  0.000000000000000
%f  0.0000000  0.000000000  0.00000000000  0.000000000000000
%i    0    0    0    0      0      0      0      0         0
%i    0    0    0    0      0      0      0      0         0
/*      NGA, ST. LOUIS,MO.                                  
/*   EPHEMERIS COMPUTED FROM  1 DAYS OF DATA
/*   EPOCHA SMOOTHER  
/* CCCCCCCCCCCCCCCCCCCCCCCCCCCCCCCCCCCCCCCCCCCCCCCCCCCCCCCCC
*  2012  4 14 23 40  0.00000000                                                 
P  1   1779.707398 -16464.207909 -20768.603221    248.039925                    
V  1  24679.691852  -9298.564311   9515.183535      0.044658                    
P  2 -21855.054741  13644.098302   5342.683818    386.686453                    
V  2  -7715.788213   -839.578155 -30587.364519      0.014067                    
P  3  10769.829192 -19032.013679  14417.736626     36.010056                    
V  3   3041.207343  19309.055495  22776.829830      0.050116                    
P  4 -25480.731053   5756.111225  -5906.749761    153.622800                    
V  4   5439.130992  -5578.368030 -29844.391440      0.113971                    
P  5 -12119.625842   9940.628221  21428.437514   -304.994286                    
V  5 -21387.286518 -16948.991119  -4106.159255     -0.040838                    
P  6  13859.227447 -14648.330664  17266.878879     30.659662                    
V  6    536.741595  21970.233795  18637.721169     -0.011210                    
P  7 -13056.939118 -10068.052671  20896.736006     72.695047                    
V  7  24339.861454 -10208.188928  10056.186747      0.031692                    
P  8 -23104.913885  -2160.759056  13500.463650      1.037622                    
V  8  15795.994923  -5657.194315  25698.731901     -0.000034                    
P  9  -6227.921852  17027.937186 -19974.741783    151.540364                    
V  9 -22501.419275   8645.933353  14772.044287      0.025713                    
P 10 -22572.049472  -6730.031481  12401.537533    -35.423411                    
V 10 -10928.300155 -11980.793494 -25475.718014     -0.011600                    
P 11   5870.168753 -20725.949473 -15719.375653   -251.589664                    
V 11  17642.870188  -9373.873880  19743.764748     -0.038250                    
P 12   4206.275593  19068.101479 -18090.637079     63.535674                    
V 12 -18482.301778 -13499.318294 -18338.263989      0.021029                    
P 13  -6848.902004 -19365.223213  16641.339514    213.406284                    
V 13   6184.957095 -20525.720322 -21242.417469     -0.022997                    
P 14  14745.987467   1283.178402 -21871.246913    200.130112                    
V 14  -5380.199535  27631.261220  -2126.217278      0.010850                    
P 15  -2783.335795  26294.568761   -290.681701    -91.419535                    
V 15  -3505.241374    -33.011199  31550.832727      0.001074                    
P 16  12624.464373  -8488.462530  21813.976105   -231.364066                    
V 16  20962.352388  17922.739106  -4851.660530     -0.014159                    
P 17 -14614.239877  -3989.617924 -21648.670680    135.786128                    
V 17   4774.829671 -27483.347449   1594.890568     -0.027844                    
P 18  19967.780805  17732.554702   2071.238251    191.021027                    
V 18  -3849.115943   1329.452648  30685.091974      0.018131                    
P 19   7197.251089 -25262.899406   2028.182742   -255.634351                    
V 19   2509.960557   3289.455759  31847.102448     -0.037450                    
P 20  -9119.547162 -20097.139611 -14988.098563     63.214833                    
V 20  16863.753849   8725.570339 -22131.661014      0.000148                    
P 21  17766.964375   7916.680360  18806.734505   -217.324915                    
V 21 -20626.263685   9816.495574  15171.337197     -0.024605                    
P 22  22834.189996   7203.032148 -11448.376860    143.331378                    
V 22   9619.209197  11737.287019  26041.784502      0.002314                    
P 23  -1376.073743 -25309.299026   7298.394098    214.721477                    
V 23   4313.714631  -8782.859343 -30124.573833     -0.035973                    
P 25  16760.762107  19222.793884  -7556.635665     33.005875                    
V 25  -9033.538901  -3864.745768 -29920.015031      0.003382                    
P 26 -12360.618024  19850.543077  11601.729231   -303.451091                    
V 26   1282.378025 -15913.880627  27527.999782     -0.534066                    
P 27 -12913.446966  16872.446894 -15008.281770    377.480033                    
V 27 -19349.893603   6544.047559  23531.284585      0.040877                    
P 28 -22295.784089 -10785.915768  -9332.304345    133.505157                    
V 28  -8243.526084  -9682.940398  28952.481780      0.040987                    
P 29   6361.965877  21411.835592  14472.079783    303.404932                    
V 29  -5225.001278  17587.995562 -23794.522364      0.036331                    
P 30  19952.025054  -1675.251526  17099.360579   -131.246656                    
V 30  18034.638754  13429.724179 -19321.116247     -0.191095                    
P 31  25419.134652  -6673.348783  -4474.525651    231.235828                    
V 31  -4766.243990   3949.827922 -31370.417208      0.043312                    
P 32   -136.236680 -18528.376151 -18984.219330   -432.741334                    
V 32  18805.413289  15650.533912 -14771.421636     -0.044893                    
EOF
